{
  "norad_id": 64225,
  "name": "STARLINK-34289",
  "history": [
    {
      "epoch": "2026-03-28T21:08:01.517568Z",
      "apogee_km": 476.05190876688357,
      "perigee_km": 474.29595344011705,
      "latitude_deg": 1.1500381891781265e-05,
      "longitude_deg": 167.18011697724666,
      "height_km": 475.94110119937113,
      "semi_major_axis_km": 6853.3109311035005,
      "eccentricity": 0.00012811,
      "inclination_deg": 53.1603,
      "raan_deg": 310.4811,
      "arg_perigee_deg": 81.4225,
      "mean_anomaly_deg": 278.6921,
      "mean_motion_rev_day": 15.30213778
    }
  ]
}