{"fetched_at":"2026-03-29T16:36:15Z","count":15609,"tles":[{"name":"STARLINK-34289","line1":"1 64225U 25117Y   26087.88057312  .00031800  00000+0  10807-2 0  9991","line2":"2 64225  53.1603 310.4811 0001281  81.4225 278.6921 15.30213778 47497","category":"Starlink"}]}